[{"OBJECT_NAME":"STARLINK-6341","OBJECT_ID":"2023-078V","EPOCH":"2026-03-09T23:12:07.309728","MEAN_MOTION":14.9832757,"ECCENTRICITY":0.00028597,"INCLINATION":70.0001,"RA_OF_ASC_NODE":323.8155,"ARG_OF_PERICENTER":265.5621,"MEAN_ANOMALY":94.5211,"EPHEMERIS_TYPE":0,"CLASSIFICATION_TYPE":"U","NORAD_CAT_ID":56786,"ELEMENT_SET_NO":999,"REV_AT_EPOCH":15321,"BSTAR":-2.7486414e-5,"MEAN_MOTION_DOT":-4.21e-6,"MEAN_MOTION_DDOT":0},{"OBJECT_NAME":"GEESAT-2 03","OBJECT_ID":"2024-023C","EPOCH":"2026-03-09T23:27:51.195168","MEAN_MOTION":14.9659792,"ECCENTRICITY":0.00063134,"INCLINATION":50.0004,"RA_OF_ASC_NODE":73.5934,"ARG_OF_PERICENTER":3.6102,"MEAN_ANOMALY":356.4887,"EPHEMERIS_TYPE":0,"CLASSIFICATION_TYPE":"U","NORAD_CAT_ID":58907,"ELEMENT_SET_NO":999,"REV_AT_EPOCH":11446,"BSTAR":0.00027230842,"MEAN_MOTION_DOT":2.885e-5,"MEAN_MOTION_DDOT":0}]
